CALSPHERE 1             
1 00900U 64063C   22232.48340338  .00000399  00000+0  41487-3 0  9999
2 00900  90.1749  42.0760 0027007 185.0216 258.2217 13.73867872879451
CALSPHERE 2             
1 00902U 64063E   22232.51099965  .00000033  00000+0  36946-4 0  9992
2 00902  90.1874  45.1998 0017218 327.2839  93.8983 13.52720160667434
LCS 1                   
1 01361U 65034C   22232.54192461  .00000024  00000+0  20810-2 0  9990
2 01361  32.1374 253.1341 0012607 104.6912 255.4983  9.89301949 71579
TEMPSAT 1               
1 01512U 65065E   22232.48223348  .00000043  00000+0  67373-4 0  9992
2 01512  89.9137 218.1249 0068926 209.3689 269.1926 13.33453493773902
CALSPHERE 4A            
1 01520U 65065H   22232.55158750  .00000085  00000+0  14585-3 0  9995
2 01520  89.9915 130.1278 0071341  82.5034  34.8181 13.35899631776217
OPS 5712 (P/L 160)      
1 02826U 67053A   22232.51923271  .00001724  00000+0  45247-3 0  9998
2 02826  69.9283 138.7747 0007969 267.1317  92.8904 14.50846417862022
OPS 5712 (P/L 153)      
1 02874U 67053H   22232.39174249 -.00000008  00000+0  32639-4 0  9997
2 02874  69.9714 228.1894 0009015 225.7610 134.2756 13.96413249811753
SURCAL 150B             
1 02909U 67053J   22232.53605055  .00002802  00000+0  54144-3 0  9993
2 02909  69.9467 125.0182 0005688 286.2198  73.8317 14.64454540872996
RIGIDSPHERE 2 (LCS 4)   
1 05398U 71067E   22232.52737057  .00000470  00000+0  15722-3 0  9993
2 05398  87.6270   5.3103 0063592 172.0124 188.2102 14.34291626673445
COSMOS 2493 (SKRL-756 1)
1 39490U 13078A   22232.53809511  .00001109  00000+0  11356-3 0  9996
2 39490  82.4203 172.7698 0015440 242.1640 117.8013 14.89567270469233
COSMOS 2494 (SKRL-756 2)
1 39491U 13078B   22232.51772949  .00001164  00000+0  11478-3 0  9995
2 39491  82.4204 166.4315 0020373 216.6156 143.3672 14.91026391469805
